<?xml version="1.0"?>
<gpx version="1.1" creator="OpenCPN" xmlns:xsi="http://www.w3.org/2001/XMLSchema-instance" xmlns="http://www.topografix.com/GPX/1/1" xmlns:gpxx="http://www.garmin.com/xmlschemas/GpxExtensions/v3" xsi:schemaLocation="http://www.topografix.com/GPX/1/1 http://www.topografix.com/GPX/1/1/gpx.xsd http://www.garmin.com/xmlschemas/GpxExtensions/v3 http://www8.garmin.com/xmlschemas/GpxExtensionsv3.xsd" xmlns:opencpn="http://www.opencpn.org">
  <rte>
    <name>peri</name>
    <extensions>
      <opencpn:guid>29d5ab68-15d1-42d9-9869-0274107d7444</opencpn:guid>
      <opencpn:viz>1</opencpn:viz>
      <opencpn:planned_speed>6.00</opencpn:planned_speed>
      <opencpn:planned_departure>2025-09-22T10:02:22Z</opencpn:planned_departure>
      <opencpn:time_display>PC</opencpn:time_display>
      <gpxx:RouteExtension>
        <gpxx:IsAutoNamed>false</gpxx:IsAutoNamed>
      </gpxx:RouteExtension>
    </extensions>
    <rtept lat="68.455026735" lon="-27.688988192">
      <time>2025-09-22T09:59:21Z</time>
      <name>001</name>
      <sym>diamond</sym>
      <type>WPT</type>
      <extensions>
        <opencpn:guid>1c5c24d1-cae9-4b0d-b3ce-c8715e726a1f</opencpn:guid>
        <opencpn:auto_name>1</opencpn:auto_name>
        <opencpn:arrival_radius>0.050</opencpn:arrival_radius>
        <opencpn:waypoint_range_rings visible="false" number="0" step="1" units="0" colour="#FF0000" />
        <opencpn:scale_min_max UseScale="false" ScaleMin="2147483646" ScaleMax="0" />
      </extensions>
    </rtept>
    <rtept lat="68.667529159" lon="-26.085603733">
      <time>2025-09-22T09:59:24Z</time>
      <name>002</name>
      <sym>diamond</sym>
      <type>WPT</type>
      <extensions>
        <opencpn:guid>753def7b-6a6b-4148-9187-a9af1ce6848f</opencpn:guid>
        <opencpn:auto_name>1</opencpn:auto_name>
        <opencpn:arrival_radius>0.050</opencpn:arrival_radius>
        <opencpn:waypoint_range_rings visible="false" number="0" step="1" units="0" colour="#FF0000" />
        <opencpn:scale_min_max UseScale="false" ScaleMin="2147483646" ScaleMax="0" />
      </extensions>
    </rtept>
    <rtept lat="68.964612512" lon="-25.138562204">
      <time>2025-09-22T09:59:29Z</time>
      <name>003</name>
      <sym>diamond</sym>
      <type>WPT</type>
      <extensions>
        <opencpn:guid>466c6f0a-f1dc-4364-8588-322238f39c56</opencpn:guid>
        <opencpn:auto_name>1</opencpn:auto_name>
        <opencpn:arrival_radius>0.050</opencpn:arrival_radius>
        <opencpn:waypoint_range_rings visible="false" number="0" step="1" units="0" colour="#FF0000" />
        <opencpn:scale_min_max UseScale="false" ScaleMin="2147483646" ScaleMax="0" />
      </extensions>
    </rtept>
    <rtept lat="69.345239515" lon="-24.216502585">
      <time>2025-09-22T09:59:46Z</time>
      <name>004</name>
      <sym>diamond</sym>
      <type>WPT</type>
      <extensions>
        <opencpn:guid>54393a10-f226-4ca2-b21d-f76352fede9e</opencpn:guid>
        <opencpn:auto_name>1</opencpn:auto_name>
        <opencpn:arrival_radius>0.050</opencpn:arrival_radius>
        <opencpn:waypoint_range_rings visible="false" number="0" step="1" units="0" colour="#FF0000" />
        <opencpn:scale_min_max UseScale="false" ScaleMin="2147483646" ScaleMax="0" />
      </extensions>
    </rtept>
    <rtept lat="69.496911944" lon="-23.632834305">
      <time>2025-09-22T09:59:52Z</time>
      <name>005</name>
      <sym>diamond</sym>
      <type>WPT</type>
      <extensions>
        <opencpn:guid>6c1e2578-5e5c-4c7b-8381-fbb657f8b2ef</opencpn:guid>
        <opencpn:auto_name>1</opencpn:auto_name>
        <opencpn:arrival_radius>0.050</opencpn:arrival_radius>
        <opencpn:waypoint_range_rings visible="false" number="0" step="1" units="0" colour="#FF0000" />
        <opencpn:scale_min_max UseScale="false" ScaleMin="2147483646" ScaleMax="0" />
      </extensions>
    </rtept>
    <rtept lat="70.025374210" lon="-22.188777398">
      <time>2025-09-22T10:00:09Z</time>
      <name>006</name>
      <sym>diamond</sym>
      <type>WPT</type>
      <extensions>
        <opencpn:guid>22079fd7-451e-4b30-a872-02d45e8f7373</opencpn:guid>
        <opencpn:auto_name>1</opencpn:auto_name>
        <opencpn:arrival_radius>0.050</opencpn:arrival_radius>
        <opencpn:waypoint_range_rings visible="false" number="0" step="1" units="0" colour="#FF0000" />
        <opencpn:scale_min_max UseScale="false" ScaleMin="2147483646" ScaleMax="0" />
      </extensions>
    </rtept>
    <rtept lat="70.593777468" lon="-21.156126061">
      <time>2025-09-22T10:00:31Z</time>
      <name>007</name>
      <sym>diamond</sym>
      <type>WPT</type>
      <extensions>
        <opencpn:guid>624dab32-b245-4aef-9d16-ebe91d2f6ef5</opencpn:guid>
        <opencpn:auto_name>1</opencpn:auto_name>
        <opencpn:arrival_radius>0.050</opencpn:arrival_radius>
        <opencpn:waypoint_range_rings visible="false" number="0" step="1" units="0" colour="#FF0000" />
        <opencpn:scale_min_max UseScale="false" ScaleMin="2147483646" ScaleMax="0" />
      </extensions>
    </rtept>
    <rtept lat="70.859514225" lon="-21.275398860">
      <time>2025-09-22T10:00:33Z</time>
      <name>008</name>
      <sym>diamond</sym>
      <type>WPT</type>
      <extensions>
        <opencpn:guid>633336a5-6e92-42d1-b533-7d6422289199</opencpn:guid>
        <opencpn:auto_name>1</opencpn:auto_name>
        <opencpn:arrival_radius>0.050</opencpn:arrival_radius>
        <opencpn:waypoint_range_rings visible="false" number="0" step="1" units="0" colour="#FF0000" />
        <opencpn:scale_min_max UseScale="false" ScaleMin="2147483646" ScaleMax="0" />
      </extensions>
    </rtept>
    <rtept lat="71.794897477" lon="-21.482556879">
      <time>2025-09-22T10:00:43Z</time>
      <name>009</name>
      <sym>diamond</sym>
      <type>WPT</type>
      <extensions>
        <opencpn:guid>2fb90e93-3cd8-4f5a-b165-e9e854e19a45</opencpn:guid>
        <opencpn:auto_name>1</opencpn:auto_name>
        <opencpn:arrival_radius>0.050</opencpn:arrival_radius>
        <opencpn:waypoint_range_rings visible="false" number="0" step="1" units="0" colour="#FF0000" />
        <opencpn:scale_min_max UseScale="false" ScaleMin="2147483646" ScaleMax="0" />
      </extensions>
    </rtept>
    <rtept lat="72.007946549" lon="-22.926385496">
      <time>2025-09-22T10:00:46Z</time>
      <name>010</name>
      <sym>diamond</sym>
      <type>WPT</type>
      <extensions>
        <opencpn:guid>2ab176b5-d1d0-4dc2-8fac-daba1751faaa</opencpn:guid>
        <opencpn:auto_name>1</opencpn:auto_name>
        <opencpn:arrival_radius>0.050</opencpn:arrival_radius>
        <opencpn:waypoint_range_rings visible="false" number="0" step="1" units="0" colour="#FF0000" />
        <opencpn:scale_min_max UseScale="false" ScaleMin="2147483646" ScaleMax="0" />
      </extensions>
    </rtept>
    <rtept lat="72.043300234" lon="-19.797043906">
      <time>2025-09-22T10:00:48Z</time>
      <name>011</name>
      <sym>diamond</sym>
      <type>WPT</type>
      <extensions>
        <opencpn:guid>5eff3316-88e6-4316-931a-824154386979</opencpn:guid>
        <opencpn:auto_name>1</opencpn:auto_name>
        <opencpn:arrival_radius>0.050</opencpn:arrival_radius>
        <opencpn:waypoint_range_rings visible="false" number="0" step="1" units="0" colour="#FF0000" />
        <opencpn:scale_min_max UseScale="false" ScaleMin="2147483646" ScaleMax="0" />
      </extensions>
    </rtept>
    <rtept lat="72.040543569" lon="-14.957092666">
      <time>2025-09-22T10:01:12Z</time>
      <name>012</name>
      <sym>diamond</sym>
      <type>WPT</type>
      <extensions>
        <opencpn:guid>635adf36-c5e9-4854-820a-e856561e6bdf</opencpn:guid>
        <opencpn:auto_name>1</opencpn:auto_name>
        <opencpn:arrival_radius>0.050</opencpn:arrival_radius>
        <opencpn:waypoint_range_rings visible="false" number="0" step="1" units="0" colour="#FF0000" />
        <opencpn:scale_min_max UseScale="false" ScaleMin="2147483646" ScaleMax="0" />
      </extensions>
    </rtept>
    <rtept lat="71.422192735" lon="-11.158387298">
      <time>2025-09-22T10:01:24Z</time>
      <name>013</name>
      <sym>diamond</sym>
      <type>WPT</type>
      <extensions>
        <opencpn:guid>3a8a205f-84a6-4cf6-b930-094f0e8589d5</opencpn:guid>
        <opencpn:auto_name>1</opencpn:auto_name>
        <opencpn:arrival_radius>0.050</opencpn:arrival_radius>
        <opencpn:waypoint_range_rings visible="false" number="0" step="1" units="0" colour="#FF0000" />
        <opencpn:scale_min_max UseScale="false" ScaleMin="2147483646" ScaleMax="0" />
      </extensions>
    </rtept>
    <rtept lat="70.281024420" lon="-12.505124901">
      <time>2025-09-22T10:01:28Z</time>
      <name>014</name>
      <sym>diamond</sym>
      <type>WPT</type>
      <extensions>
        <opencpn:guid>39ec34f5-8511-4f93-a742-331e7c0ec70f</opencpn:guid>
        <opencpn:auto_name>1</opencpn:auto_name>
        <opencpn:arrival_radius>0.050</opencpn:arrival_radius>
        <opencpn:waypoint_range_rings visible="false" number="0" step="1" units="0" colour="#FF0000" />
        <opencpn:scale_min_max UseScale="false" ScaleMin="2147483646" ScaleMax="0" />
      </extensions>
    </rtept>
    <rtept lat="69.185606560" lon="-9.449501769">
      <time>2025-09-22T10:01:32Z</time>
      <name>015</name>
      <sym>diamond</sym>
      <type>WPT</type>
      <extensions>
        <opencpn:guid>56cbae8b-ac60-4f7b-a625-e87c3c0cc975</opencpn:guid>
        <opencpn:auto_name>1</opencpn:auto_name>
        <opencpn:arrival_radius>0.050</opencpn:arrival_radius>
        <opencpn:waypoint_range_rings visible="false" number="0" step="1" units="0" colour="#FF0000" />
        <opencpn:scale_min_max UseScale="false" ScaleMin="2147483646" ScaleMax="0" />
      </extensions>
    </rtept>
    <rtept lat="68.920603593" lon="-14.598792603">
      <time>2025-09-22T10:01:35Z</time>
      <name>016</name>
      <sym>diamond</sym>
      <type>WPT</type>
      <extensions>
        <opencpn:guid>2cab58a8-4a93-4369-bc5f-b6ae4d143305</opencpn:guid>
        <opencpn:auto_name>1</opencpn:auto_name>
        <opencpn:arrival_radius>0.050</opencpn:arrival_radius>
        <opencpn:waypoint_range_rings visible="false" number="0" step="1" units="0" colour="#FF0000" />
        <opencpn:scale_min_max UseScale="false" ScaleMin="2147483646" ScaleMax="0" />
      </extensions>
    </rtept>
    <rtept lat="68.238698873" lon="-15.651285015">
      <time>2025-09-22T10:01:41Z</time>
      <name>017</name>
      <sym>diamond</sym>
      <type>WPT</type>
      <extensions>
        <opencpn:guid>6ad55f42-bcc2-4506-a881-106250c7dfc8</opencpn:guid>
        <opencpn:auto_name>1</opencpn:auto_name>
        <opencpn:arrival_radius>0.050</opencpn:arrival_radius>
        <opencpn:waypoint_range_rings visible="false" number="0" step="1" units="0" colour="#FF0000" />
        <opencpn:scale_min_max UseScale="false" ScaleMin="2147483646" ScaleMax="0" />
      </extensions>
    </rtept>
    <rtept lat="67.112647164" lon="-16.930119881">
      <time>2025-09-22T10:01:44Z</time>
      <name>018</name>
      <sym>diamond</sym>
      <type>WPT</type>
      <extensions>
        <opencpn:guid>29d53446-d8b5-4f25-a480-aca427e1539e</opencpn:guid>
        <opencpn:auto_name>1</opencpn:auto_name>
        <opencpn:arrival_radius>0.050</opencpn:arrival_radius>
        <opencpn:waypoint_range_rings visible="false" number="0" step="1" units="0" colour="#FF0000" />
        <opencpn:scale_min_max UseScale="false" ScaleMin="2147483646" ScaleMax="0" />
      </extensions>
    </rtept>
    <rtept lat="66.463694869" lon="-21.241943635">
      <time>2025-09-22T10:01:56Z</time>
      <name>019</name>
      <sym>diamond</sym>
      <type>WPT</type>
      <extensions>
        <opencpn:guid>2c1c3dfc-e452-462e-9c1e-f6c510698f27</opencpn:guid>
        <opencpn:auto_name>1</opencpn:auto_name>
        <opencpn:arrival_radius>0.050</opencpn:arrival_radius>
        <opencpn:waypoint_range_rings visible="false" number="0" step="1" units="0" colour="#FF0000" />
        <opencpn:scale_min_max UseScale="false" ScaleMin="2147483646" ScaleMax="0" />
      </extensions>
    </rtept>
    <rtept lat="66.520629948" lon="-22.792749267">
      <time>2025-09-22T10:01:58Z</time>
      <name>020</name>
      <sym>diamond</sym>
      <type>WPT</type>
      <extensions>
        <opencpn:guid>10645505-5613-4c1a-8255-5cd44c7d8138</opencpn:guid>
        <opencpn:auto_name>1</opencpn:auto_name>
        <opencpn:arrival_radius>0.050</opencpn:arrival_radius>
        <opencpn:waypoint_range_rings visible="false" number="0" step="1" units="0" colour="#FF0000" />
        <opencpn:scale_min_max UseScale="false" ScaleMin="2147483646" ScaleMax="0" />
      </extensions>
    </rtept>
    <rtept lat="66.376685396" lon="-23.315691548">
      <time>2025-09-22T10:02:01Z</time>
      <name>021</name>
      <sym>diamond</sym>
      <type>WPT</type>
      <extensions>
        <opencpn:guid>61413efe-051e-494d-b001-0b937de3d848</opencpn:guid>
        <opencpn:auto_name>1</opencpn:auto_name>
        <opencpn:arrival_radius>0.050</opencpn:arrival_radius>
        <opencpn:waypoint_range_rings visible="false" number="0" step="1" units="0" colour="#FF0000" />
        <opencpn:scale_min_max UseScale="false" ScaleMin="2147483646" ScaleMax="0" />
      </extensions>
    </rtept>
    <rtept lat="66.081586502" lon="-23.768908191">
      <time>2025-10-03T11:24:21Z</time>
      <name>022</name>
      <sym>diamond</sym>
      <type>WPT</type>
      <extensions>
        <opencpn:guid>660d6ef4-f7df-4806-8c07-e8ce2711b8bd</opencpn:guid>
        <opencpn:auto_name>1</opencpn:auto_name>
        <opencpn:arrival_radius>0.050</opencpn:arrival_radius>
        <opencpn:waypoint_range_rings visible="false" number="0" step="1" units="0" colour="#FF0000" />
        <opencpn:scale_min_max UseScale="false" ScaleMin="2147483646" ScaleMax="0" />
      </extensions>
    </rtept>
    <rtept lat="65.863929333" lon="-24.896139330">
      <time>2025-10-03T11:24:22Z</time>
      <name>023</name>
      <sym>diamond</sym>
      <type>WPT</type>
      <extensions>
        <opencpn:guid>593b7692-9dcb-48ed-bb74-7f4548699a15</opencpn:guid>
        <opencpn:auto_name>1</opencpn:auto_name>
        <opencpn:arrival_radius>0.050</opencpn:arrival_radius>
        <opencpn:waypoint_range_rings visible="false" number="0" step="1" units="0" colour="#FF0000" />
        <opencpn:scale_min_max UseScale="false" ScaleMin="2147483646" ScaleMax="0" />
      </extensions>
    </rtept>
    <rtept lat="65.610842171" lon="-26.860078119">
      <time>2025-10-03T11:24:25Z</time>
      <name>024</name>
      <sym>diamond</sym>
      <type>WPT</type>
      <extensions>
        <opencpn:guid>3b18a529-9e06-4f55-870a-81d20fcc8053</opencpn:guid>
        <opencpn:auto_name>1</opencpn:auto_name>
        <opencpn:arrival_radius>0.050</opencpn:arrival_radius>
        <opencpn:waypoint_range_rings visible="false" number="0" step="1" units="0" colour="#FF0000" />
        <opencpn:scale_min_max UseScale="false" ScaleMin="2147483646" ScaleMax="0" />
      </extensions>
    </rtept>
    <rtept lat="65.461657171" lon="-27.720027647">
      <time>2025-10-03T11:24:27Z</time>
      <name>025</name>
      <sym>diamond</sym>
      <type>WPT</type>
      <extensions>
        <opencpn:guid>6ede03fe-63b1-4352-a7c9-78f2411ac5fe</opencpn:guid>
        <opencpn:auto_name>1</opencpn:auto_name>
        <opencpn:arrival_radius>0.050</opencpn:arrival_radius>
        <opencpn:waypoint_range_rings visible="false" number="0" step="1" units="0" colour="#FF0000" />
        <opencpn:scale_min_max UseScale="false" ScaleMin="2147483646" ScaleMax="0" />
      </extensions>
    </rtept>
    <rtept lat="65.248440531" lon="-30.509053146">
      <time>2025-10-03T11:24:30Z</time>
      <name>026</name>
      <sym>diamond</sym>
      <type>WPT</type>
      <extensions>
        <opencpn:guid>7471e48c-c2a7-445e-a561-fa7a5667c684</opencpn:guid>
        <opencpn:auto_name>1</opencpn:auto_name>
        <opencpn:arrival_radius>0.050</opencpn:arrival_radius>
        <opencpn:waypoint_range_rings visible="false" number="0" step="1" units="0" colour="#FF0000" />
        <opencpn:scale_min_max UseScale="false" ScaleMin="2147483646" ScaleMax="0" />
      </extensions>
    </rtept>
    <rtept lat="65.013861411" lon="-32.426508176">
      <time>2025-10-03T11:24:31Z</time>
      <name>027</name>
      <sym>diamond</sym>
      <type>WPT</type>
      <extensions>
        <opencpn:guid>394abca5-b34d-4f20-9888-25d16b714d98</opencpn:guid>
        <opencpn:auto_name>1</opencpn:auto_name>
        <opencpn:arrival_radius>0.050</opencpn:arrival_radius>
        <opencpn:waypoint_range_rings visible="false" number="0" step="1" units="0" colour="#FF0000" />
        <opencpn:scale_min_max UseScale="false" ScaleMin="2147483646" ScaleMax="0" />
      </extensions>
    </rtept>
    <rtept lat="64.722674595" lon="-34.006955958">
      <time>2025-10-03T11:24:35Z</time>
      <name>028</name>
      <sym>diamond</sym>
      <type>WPT</type>
      <extensions>
        <opencpn:guid>31bd9e96-2fed-42be-a67e-37bb7f97c5c7</opencpn:guid>
        <opencpn:auto_name>1</opencpn:auto_name>
        <opencpn:arrival_radius>0.050</opencpn:arrival_radius>
        <opencpn:waypoint_range_rings visible="false" number="0" step="1" units="0" colour="#FF0000" />
        <opencpn:scale_min_max UseScale="false" ScaleMin="2147483646" ScaleMax="0" />
      </extensions>
    </rtept>
    <rtept lat="64.373087583" lon="-35.784959713">
      <time>2025-10-03T11:24:38Z</time>
      <name>029</name>
      <sym>diamond</sym>
      <type>WPT</type>
      <extensions>
        <opencpn:guid>0ca9254d-699f-4b6f-a7b1-ec153c7c63e2</opencpn:guid>
        <opencpn:auto_name>1</opencpn:auto_name>
        <opencpn:arrival_radius>0.050</opencpn:arrival_radius>
        <opencpn:waypoint_range_rings visible="false" number="0" step="1" units="0" colour="#FF0000" />
        <opencpn:scale_min_max UseScale="false" ScaleMin="2147483646" ScaleMax="0" />
      </extensions>
    </rtept>
    <rtept lat="63.973141778" lon="-38.155631387">
      <time>2025-10-03T11:24:41Z</time>
      <name>030</name>
      <sym>diamond</sym>
      <type>WPT</type>
      <extensions>
        <opencpn:guid>08fff98a-baaf-441c-8a60-fb2775aef1c6</opencpn:guid>
        <opencpn:auto_name>1</opencpn:auto_name>
        <opencpn:arrival_radius>0.050</opencpn:arrival_radius>
        <opencpn:waypoint_range_rings visible="false" number="0" step="1" units="0" colour="#FF0000" />
        <opencpn:scale_min_max UseScale="false" ScaleMin="2147483646" ScaleMax="0" />
      </extensions>
    </rtept>
    <rtept lat="64.687917299" lon="-39.852288565">
      <time>2025-10-03T11:24:43Z</time>
      <name>031</name>
      <sym>diamond</sym>
      <type>WPT</type>
      <extensions>
        <opencpn:guid>70d15631-7ee4-4e78-b496-e5307cd1c08e</opencpn:guid>
        <opencpn:auto_name>1</opencpn:auto_name>
        <opencpn:arrival_radius>0.050</opencpn:arrival_radius>
        <opencpn:waypoint_range_rings visible="false" number="0" step="1" units="0" colour="#FF0000" />
        <opencpn:scale_min_max UseScale="false" ScaleMin="2147483646" ScaleMax="0" />
      </extensions>
    </rtept>
    <rtept lat="65.447174561" lon="-38.643710849">
      <time>2025-10-03T11:24:45Z</time>
      <name>032</name>
      <sym>diamond</sym>
      <type>WPT</type>
      <extensions>
        <opencpn:guid>44de77f4-d32a-48f2-9a58-5e9e6ac6b3c8</opencpn:guid>
        <opencpn:auto_name>1</opencpn:auto_name>
        <opencpn:arrival_radius>0.050</opencpn:arrival_radius>
        <opencpn:waypoint_range_rings visible="false" number="0" step="1" units="0" colour="#FF0000" />
        <opencpn:scale_min_max UseScale="false" ScaleMin="2147483646" ScaleMax="0" />
      </extensions>
    </rtept>
    <rtept lat="65.505056929" lon="-36.784360517">
      <time>2025-10-03T11:24:46Z</time>
      <name>033</name>
      <sym>diamond</sym>
      <type>WPT</type>
      <extensions>
        <opencpn:guid>6564a684-65e1-43fe-8fcd-b33e75c0cc59</opencpn:guid>
        <opencpn:auto_name>1</opencpn:auto_name>
        <opencpn:arrival_radius>0.050</opencpn:arrival_radius>
        <opencpn:waypoint_range_rings visible="false" number="0" step="1" units="0" colour="#FF0000" />
        <opencpn:scale_min_max UseScale="false" ScaleMin="2147483646" ScaleMax="0" />
      </extensions>
    </rtept>
    <rtept lat="66.024985087" lon="-35.354984949">
      <time>2025-10-03T11:24:48Z</time>
      <name>034</name>
      <sym>diamond</sym>
      <type>WPT</type>
      <extensions>
        <opencpn:guid>00392c8b-5336-4c48-a467-dd321be7af66</opencpn:guid>
        <opencpn:auto_name>1</opencpn:auto_name>
        <opencpn:arrival_radius>0.050</opencpn:arrival_radius>
        <opencpn:waypoint_range_rings visible="false" number="0" step="1" units="0" colour="#FF0000" />
        <opencpn:scale_min_max UseScale="false" ScaleMin="2147483646" ScaleMax="0" />
      </extensions>
    </rtept>
    <rtept lat="66.390651796" lon="-34.448551662">
      <time>2025-10-03T11:24:50Z</time>
      <name>035</name>
      <sym>diamond</sym>
      <type>WPT</type>
      <extensions>
        <opencpn:guid>3b67e405-4356-44ea-a925-0eb952764e30</opencpn:guid>
        <opencpn:auto_name>1</opencpn:auto_name>
        <opencpn:arrival_radius>0.050</opencpn:arrival_radius>
        <opencpn:waypoint_range_rings visible="false" number="0" step="1" units="0" colour="#FF0000" />
        <opencpn:scale_min_max UseScale="false" ScaleMin="2147483646" ScaleMax="0" />
      </extensions>
    </rtept>
    <rtept lat="67.033818313" lon="-33.332941463">
      <time>2025-10-03T11:24:51Z</time>
      <name>036</name>
      <sym>diamond</sym>
      <type>WPT</type>
      <extensions>
        <opencpn:guid>7b354df3-d121-4609-ada8-524644b8f0c3</opencpn:guid>
        <opencpn:auto_name>1</opencpn:auto_name>
        <opencpn:arrival_radius>0.050</opencpn:arrival_radius>
        <opencpn:waypoint_range_rings visible="false" number="0" step="1" units="0" colour="#FF0000" />
        <opencpn:scale_min_max UseScale="false" ScaleMin="2147483646" ScaleMax="0" />
      </extensions>
    </rtept>
    <rtept lat="67.531943949" lon="-32.728652605">
      <time>2025-10-03T11:24:53Z</time>
      <name>037</name>
      <sym>diamond</sym>
      <type>WPT</type>
      <extensions>
        <opencpn:guid>21e9d37b-fc76-48a3-bff3-2f0d0d12ed48</opencpn:guid>
        <opencpn:auto_name>1</opencpn:auto_name>
        <opencpn:arrival_radius>0.050</opencpn:arrival_radius>
        <opencpn:waypoint_range_rings visible="false" number="0" step="1" units="0" colour="#FF0000" />
        <opencpn:scale_min_max UseScale="false" ScaleMin="2147483646" ScaleMax="0" />
      </extensions>
    </rtept>
    <rtept lat="67.691287126" lon="-32.263815022">
      <time>2025-10-03T11:24:54Z</time>
      <name>038</name>
      <sym>diamond</sym>
      <type>WPT</type>
      <extensions>
        <opencpn:guid>699bb9f9-dd9d-4139-8fe4-58476903e7cc</opencpn:guid>
        <opencpn:auto_name>1</opencpn:auto_name>
        <opencpn:arrival_radius>0.050</opencpn:arrival_radius>
        <opencpn:waypoint_range_rings visible="false" number="0" step="1" units="0" colour="#FF0000" />
        <opencpn:scale_min_max UseScale="false" ScaleMin="2147483646" ScaleMax="0" />
      </extensions>
    </rtept>
    <rtept lat="68.011112834" lon="-31.531695828">
      <time>2025-10-03T11:24:57Z</time>
      <name>039</name>
      <sym>diamond</sym>
      <type>WPT</type>
      <extensions>
        <opencpn:guid>74b5e49c-a368-4f40-902e-fe0a340456ad</opencpn:guid>
        <opencpn:auto_name>1</opencpn:auto_name>
        <opencpn:arrival_radius>0.050</opencpn:arrival_radius>
        <opencpn:waypoint_range_rings visible="false" number="0" step="1" units="0" colour="#FF0000" />
        <opencpn:scale_min_max UseScale="false" ScaleMin="2147483646" ScaleMax="0" />
      </extensions>
    </rtept>
    <rtept lat="68.076288705" lon="-31.299277037">
      <time>2025-10-03T11:24:59Z</time>
      <name>040</name>
      <sym>diamond</sym>
      <type>WPT</type>
      <extensions>
        <opencpn:guid>77e058ca-53cb-4f90-9857-d43d15e3bb6e</opencpn:guid>
        <opencpn:auto_name>1</opencpn:auto_name>
        <opencpn:arrival_radius>0.050</opencpn:arrival_radius>
        <opencpn:waypoint_range_rings visible="false" number="0" step="1" units="0" colour="#FF0000" />
        <opencpn:scale_min_max UseScale="false" ScaleMin="2147483646" ScaleMax="0" />
      </extensions>
    </rtept>
    <rtept lat="68.071949367" lon="-30.683367239">
      <time>2025-10-03T11:25:00Z</time>
      <name>041</name>
      <sym>diamond</sym>
      <type>WPT</type>
      <extensions>
        <opencpn:guid>25cf1298-7b9b-4460-a81f-795d77734924</opencpn:guid>
        <opencpn:auto_name>1</opencpn:auto_name>
        <opencpn:arrival_radius>0.050</opencpn:arrival_radius>
        <opencpn:waypoint_range_rings visible="false" number="0" step="1" units="0" colour="#FF0000" />
        <opencpn:scale_min_max UseScale="false" ScaleMin="2147483646" ScaleMax="0" />
      </extensions>
    </rtept>
    <rtept lat="68.145607179" lon="-29.788554892">
      <time>2025-10-03T11:25:01Z</time>
      <name>042</name>
      <sym>diamond</sym>
      <type>WPT</type>
      <extensions>
        <opencpn:guid>362c7043-3efc-40ce-9f3d-59012bbf6194</opencpn:guid>
        <opencpn:auto_name>1</opencpn:auto_name>
        <opencpn:arrival_radius>0.050</opencpn:arrival_radius>
        <opencpn:waypoint_range_rings visible="false" number="0" step="1" units="0" colour="#FF0000" />
        <opencpn:scale_min_max UseScale="false" ScaleMin="2147483646" ScaleMax="0" />
      </extensions>
    </rtept>
    <rtept lat="68.257805305" lon="-28.986710061">
      <time>2025-10-03T11:25:15Z</time>
      <name>043</name>
      <sym>diamond</sym>
      <type>WPT</type>
      <extensions>
        <opencpn:guid>449ec709-283b-4be8-a8a1-7cc422cc6c15</opencpn:guid>
        <opencpn:auto_name>1</opencpn:auto_name>
        <opencpn:arrival_radius>0.050</opencpn:arrival_radius>
        <opencpn:waypoint_range_rings visible="false" number="0" step="1" units="0" colour="#FF0000" />
        <opencpn:scale_min_max UseScale="false" ScaleMin="2147483646" ScaleMax="0" />
      </extensions>
    </rtept>
    <rtept lat="68.395142943" lon="-28.115139593">
      <time>2025-10-03T11:25:17Z</time>
      <name>044</name>
      <sym>diamond</sym>
      <type>WPT</type>
      <extensions>
        <opencpn:guid>787749f0-bf2f-4cb7-b1e6-bb7b642f89f2</opencpn:guid>
        <opencpn:auto_name>1</opencpn:auto_name>
        <opencpn:arrival_radius>0.050</opencpn:arrival_radius>
        <opencpn:waypoint_range_rings visible="false" number="0" step="1" units="0" colour="#FF0000" />
        <opencpn:scale_min_max UseScale="false" ScaleMin="2147483646" ScaleMax="0" />
      </extensions>
    </rtept>
  </rte>
</gpx>
